FLOCK 4S-22             
1 47452U 21006AR  21088.89929181  .00001369  00000-0  81729-4 0  9997
2 47452  97.5014 151.5417 0011828  20.7384 339.4325 15.12740151 10027
LEMUR-2-SAOIRSEDH5GUO   
1 47453U 21006AS  21088.84275231  .00002271  00000-0  13389-3 0  9992
2 47453  97.5048 151.4976 0011053  28.0220 332.1604 15.12530794 10013
KEPLER-13 (LUCKY)       
1 47454U 21006AT  21088.89943865  .00000967  00000-0  58830-4 0  9994
2 47454  97.4954 151.4893 0011536  19.6920 340.4754 15.12707727 10027
SPACEBEE-42             
1 47455U 21006AU  21088.89489815  .00003074  00000-0  17769-3 0  9992
2 47455  97.4953 151.4898 0011837  26.8663 333.3179 15.12971932 10023
FLOCK 4S-21             
1 47456U 21006AV  21088.90038504  .00002007  00000-0  11814-3 0  9990
2 47456  97.5021 151.5486 0011683  21.1275 339.0436 15.12720377 10025
LEMUR-2-NALLYWACKER     
1 47457U 21006AW  21088.89963625  .00001974  00000-0  11612-3 0  9998
2 47457  97.5022 151.5507 0011986  25.8081 334.3745 15.12756952 10022
IDEASSAT                
1 47458U 21006AX  21088.76880080  .00001292  00000-0  77473-4 0  9999
2 47458  97.5027 151.4192 0011938  23.2493 336.9275 15.12672235 10008
SPACEBEE-55             
1 47459U 21006AY  21088.89998142  .00001665  00000-0  98588-4 0  9997
2 47459  97.4943 151.4755 0013110  30.0999 330.0983 15.12729650 10028
SPACEBEE-54             
1 47460U 21006AZ  21088.89589641  .00003211  00000-0  18559-3 0  9997
2 47460  97.4956 151.4913 0011708  27.1270 333.0571 15.12949792 10027
KEPLER-15 (SUDORMRF)    
1 47461U 21006BA  21088.81060732  .00001503  00000-0  91974-4 0  9990
2 47461  97.4969 151.3145 0009049  41.6474 318.5444 15.11711172 10003
FLOCK 4S-11             
1 47462U 21006BB  21088.74689942  .00000899  00000-0  56647-4 0  9998
2 47462  97.4990 151.2647 0009542  42.4309 317.7658 15.11600631  9999
SPACEBEE-58             
1 47464U 21006BD  21088.84406044  .00003609  00000-0  20095-3 0  9990
2 47464  97.4992 151.5977 0014838  24.6661 335.5277 15.14175529 10026
SPACEBEE-57             
1 47465U 21006BE  21088.75023626  .00000815  00000-0  51877-4 0  9991
2 47465  97.4968 151.2395 0006831  46.4870 313.6927 15.11495365  9992
SPACEBEE-44             
1 47466U 21006BF  21088.87419342  .00002616  00000-0  15654-3 0  9992
2 47466  97.4957 151.3709 0007568  38.3958 321.7810 15.11883173 10010
SPACEBEE-56             
1 47468U 21006BH  21088.41051018  .00002914  00000-0  17397-3 0  9993
2 47468  97.4963 150.9187 0007751  38.9541 321.2247 15.11881783  9946
FLOCK 4S-33             
1 47469U 21006BJ  21088.74511870  .00002575  00000-0  15480-3 0  9991
2 47469  97.4983 151.2640 0008670  40.6248 319.5628 15.11722939  9997
SPACEBEE-45             
1 47470U 21006BK  21088.87251402  .00002866  00000-0  17094-3 0  9995
2 47470  97.4964 151.3782 0007775  37.8489 322.3287 15.11918634 10013
FLOCK 4S-12             
1 47471U 21006BL  21088.87653423  .00002308  00000-0  13906-3 0  9994
2 47471  97.5015 151.4238 0009363  41.8352 318.3592 15.11745605 10018
FLOCK 4S-13             
1 47472U 21006BM  21088.87280792  .00002366  00000-0  14207-3 0  9999
2 47472  97.5038 151.4480 0009423  39.9351 320.2570 15.11842364 10015
FLOCK 4S-35             
1 47473U 21006BN  21088.74096317  .00002305  00000-0  13858-3 0  9998
2 47473  97.5029 151.3107 0008789  38.1635 322.0217 15.11825282  9994
FLOCK 4S-8              
1 47474U 21006BP  21088.87359785  .00002347  00000-0  14100-3 0  9991
2 47474  97.4955 151.3774 0009512  40.2999 319.8934 15.11822208 10014
FLOCK 4S-31             
1 47475U 21006BQ  21088.80762290  .00002355  00000-0  14158-3 0  9996
2 47475  97.4965 151.3173 0008877  38.7833 321.4033 15.11808833 10007
KEPLER-8 (AMAROK)       
1 47476U 21006BR  21088.87368638  .00001703  00000-0  10348-3 0  9995
2 47476  97.5051 151.4529 0009734  40.5529 319.6425 15.11786018 10012
FLOCK 4S-34             
1 47477U 21006BS  21088.87498598  .00002306  00000-0  13881-3 0  9990
2 47477  97.5026 151.4361 0008704  38.4320 321.7529 15.11787110 10013
FLOCK 4S-9              
1 47478U 21006BT  21088.87505433  .00002372  00000-0  14263-3 0  9996
2 47478  97.4967 151.3849 0009503  40.9387 319.2555 15.11783870 10016
FLOCK 4S-32             
1 47479U 21006BU  21088.74314541  .00002515  00000-0  15109-3 0  9990
2 47479  97.4971 151.2562 0008733  39.6499 320.5369 15.11771721  9991
SPACEBEE-43             
1 47480U 21006BV  21088.87458150  .00002603  00000-0  15583-3 0  9995
2 47480  97.4956 151.3688 0007538  38.3007 321.8757 15.11874554 10017
CAPELLA-4 (WHITNEY)     
1 47481U 21006BW  21088.90733818  .00004105  00000-0  23781-3 0  9995
2 47481  97.4999 151.5167 0010509  29.9947 330.1884 15.12715541 10026
NASA PTD-1              
1 47482U 21006BX  21088.77838602  .00001575  00000-0  94304-4 0  9996
2 47482  97.5040 151.4146 0010646  28.9253 331.2565 15.12420084 10003
ARCE-1A                 
1 47483U 21006BY  21088.84660420  .00002192  00000-0  12966-3 0  9995
2 47483  97.4974 151.4168 0010502  30.2143 329.9691 15.12448479 10011
ARCE-1C                 
1 47484U 21006BZ  21088.84777239  .00001634  00000-0  97755-4 0  9993
2 47484  97.4977 151.4158 0010602  29.6859 330.4971 15.12394258 10014
QPS-SAR-2 IZANAMI       
1 47485U 21006CA  21088.94737353  .00001479  00000-0  88973-4 0  9997
2 47485  97.5000 151.5340 0010944  27.9719 144.2126 15.12346583 10024
ASTROCAST-0103          
1 47487U 21006CC  21088.71812437  .00001521  00000-0  91452-4 0  9995
2 47487  97.5016 151.3165 0011526  27.4968 332.6870 15.12311404  9991
ASTROCAST-0102          
1 47488U 21006CD  21088.85161259  .00001464  00000-0  88179-4 0  9998
2 47488  97.4980 151.4216 0010063  34.3019 325.8860 15.12315284 10016
CAPELLA-3 (WHITNEY)     
1 47489U 21006CE  21088.78005056  .00004155  00000-0  24146-3 0  9996
2 47489  97.5021 151.4020 0009980  31.3083 328.8741 15.12596142 10005
FLOCK 4S-39             
1 47490U 21006CF  21088.71146756  .00001092  00000-0  66446-4 0  9991
2 47490  97.5058 151.3704 0011196  25.7568 334.4218 15.12467613  9990
FLOCK 4S-4              
1 47491U 21006CG  21088.90975921  .00002189  00000-0  12945-3 0  9999
2 47491  97.4939 151.4668 0010815  23.4578 336.7143 15.12467548 10026
FLOCK 4S-17             
1 47492U 21006CH  21088.77622039  .00001668  00000-0  99411-4 0  9999
2 47492  97.5059 151.4376 0011153  24.2499 335.9255 15.12497451 10003
LEMUR-2-MANGO1          
1 47493U 21006CJ  21088.90629696  .00001788  00000-0  10603-3 0  9999
2 47493  97.4965 151.4844 0011419  27.9198 332.2643 15.12586701 10020
FLOCK 4S-3              
1 47494U 21006CK  21088.90772969  .00001354  00000-0  81405-4 0  9990
2 47494  97.4951 151.4767 0010916  22.2587 337.9116 15.12505904 10024
FLOCK 4S-27             
1 47495U 21006CL  21088.90710256  .00002183  00000-0  12881-3 0  9994
2 47495  97.4949 151.4757 0011321  23.6355 336.5393 15.12545428 10027
FLOCK 4S-18             
1 47496U 21006CM  21088.90668455  .00002575  00000-0  15125-3 0  9997
2 47496  97.5049 151.5640 0011306  23.1904 336.9834 15.12541818 10023
FLOCK 4S-26             
1 47497U 21006CN  21088.90563681  .00002907  00000-0  17013-3 0  9990
2 47497  97.4951 151.4801 0011447  23.3532 336.8217 15.12578810 10024
FLOCK 4S-2              
1 47498U 21006CP  21088.90555219  .00002843  00000-0  16636-3 0  9998
2 47498  97.4950 151.4813 0010933  21.4168 338.7518 15.12600454 10025
FLOCK 4S-40             
1 47499U 21006CQ  21088.90578424  .00002953  00000-0  17277-3 0  9996
2 47499  97.5046 151.5634 0011502  23.9452 336.2311 15.12578592 10022
FLOCK 4S-19             
1 47500U 21006CR  21088.90459046  .00002883  00000-0  16857-3 0  9992
2 47500  97.5045 151.5639 0011362  22.4723 337.7003 15.12619743 10026
KEPLER-10 (BABY YODA)   
1 47501U 21006CS  21088.90423062  .00001266  00000-0  76160-4 0  9990
2 47501  97.5060 151.5744 0011243  20.8335 339.3352 15.12603488 10024
HAWK-2C                 
1 47502U 21006CT  21088.92240205  .00000724  00000-0  45683-4 0  9993
2 47502  97.4969 151.4698 0011300  31.0807 329.1090 15.12130302 10027
KEPLER-11 (DANEEL)      
1 47503U 21006CU  21088.72131644  .00001113  00000-0  68113-4 0  9994
2 47503  97.5004 151.3141 0010363  35.7870 324.4053 15.12223388  9998
ION SCV-002             
1 47504U 21006CV  21087.79783280  .00000540  00000-0  35008-4 0  9990
2 47504  97.5014 150.4048 0010558  31.0455 329.1398 15.12155532  9854
HAWK-2A                 
1 47505U 21006CW  21088.92256895  .00000736  00000-0  46373-4 0  9998
2 47505  97.4970 151.5598 0011294  30.9803 329.2092 15.12130335 10027
ICEYE-X9                
1 47506U 21006CX  21088.81442156  .00001121  00000-0  68604-4 0  9994
2 47506  97.5016 151.4113 0010492  29.5480 107.4040 15.12189492 10001
XR-1                    
1 47507U 21006CY  21088.92215903  .00001316  00000-0  79913-4 0  9996
2 47507  97.5036 151.5309 0010231  29.9309 330.2504 15.12179569 10024
HAWK-2B                 
1 47508U 21006CZ  21088.92276618  .00000736  00000-0  46376-4 0  9999
2 47508  97.4969 151.4700 0011364  30.8992 329.2905 15.12131202 10025
GHGSAT-C2               
1 47509U 21006DA  21088.86272225  .00000728  00000-0  46086-4 0  9992
2 47509  97.4915 151.3489 0009885  31.0995 329.0819 15.11989375 10013
ICEYE-X8                
1 47510U 21006DB  21088.82237304  .00001180  00000-0  72454-4 0  9990
2 47510  97.4987 151.3661 0009517  31.0217 104.2985 15.11995137 10004
LEMUR-2-RUAIRI-EILIDH   
1 47511U 21006DC  21088.86426156  .00001873  00000-0  11273-3 0  9990
2 47511  97.4963 151.3888 0009080  32.7866 327.3927 15.12015118 10011
FLOCK 4S-38             
1 47512U 21006DD  21088.86629077  .00002569  00000-0  15332-3 0  9991
2 47512  97.5052 151.4693 0009438  34.7983 325.3863 15.11985293 10012
FLOCK 4S-28             
1 47514U 21006DE  21088.86696166  .00002545  00000-0  15196-3 0  9998
2 47514  97.4945 151.3742 0009389  35.0011 325.1835 15.11972463 10976
